NORAD_CAT_ID,OBJECT_NAME,OBJECT_TYPE,EPOCH,MEAN_MOTION,ECCENTRICITY,INCLINATION,RA_OF_ASC_NODE,ARG_OF_PERICENTER,MEAN_ANOMALY,BSTAR,MEAN_MOTION_DOT,MEAN_MOTION_DDOT,TLE_LINE0,TLE_LINE1,TLE_LINE2,SEMIMAJOR_AXIS,PERIOD,APOGEE,PERIGEE,DECAYED
55635.0,STARLINK-5495,PAYLOAD,2024-01-24 22:58:02,14.98333145,0.000275,70.0019,337.8529,250.1521,109.9342,-1.6289e-05,-2.87e-06,0.0,0 STARLINK-5495,1 55635U 23021H   24024.95697251 -.00000287  00000-0 -16289-4 0  9997,2 55635  70.0019 337.8529 0002750 250.1521 109.9342 14.98333145 52747,6950.183,96.107,573.959,570.137,0.0
55635.0,STARLINK-5495,PAYLOAD,2024-01-25 06:58:42,14.98332344,0.000274,70.0017,337.0109,251.7499,108.3362,-2.0426e-05,-3.37e-06,0.0,0 STARLINK-5495,1 55635U 23021H   24025.29077273 -.00000337  00000-0 -20426-4 0  9995,2 55635  70.0017 337.0109 0002740 251.7499 108.3362 14.98332344 52498,6950.186,96.107,573.955,570.146,0.0
55635.0,STARLINK-5495,PAYLOAD,2024-01-25 23:00:03,14.98328491,0.0002709,70.0016,335.3272,256.7779,103.3078,1.7079e-05,1.11e-06,0.0,0 STARLINK-5495,1 55635U 23021H   24025.95837397  .00000111  00000-0  17079-4 0  9997,2 55635  70.0016 335.3272 0002709 256.7779 103.3078 14.98328491 52891,6950.198,96.107,573.945,570.18,0.0
55635.0,STARLINK-5495,PAYLOAD,2024-01-26 05:24:35,14.98331925,0.0002646,70.0017,334.6541,254.9535,105.1331,5.9448e-05,6.16e-06,0.0,0 STARLINK-5495,1 55635U 23021H   24026.22541074  .00000616  00000-0  59448-4 0  9998,2 55635  70.0017 334.6541 0002646 254.9535 105.1331 14.98331925 52936,6950.187,96.107,573.891,570.213,0.0
55635.0,STARLINK-5495,PAYLOAD,2024-01-26 19:49:48,14.98308647,0.0002393,70.002,333.1388,252.0314,108.0585,0.00035481,4.141e-05,0.0,0 STARLINK-5495,1 55635U 23021H   24026.82625381  .00004141  00000-0  35481-3 0  9995,2 55635  70.0020 333.1388 0002393 252.0314 108.0585 14.98308647 52721,6950.259,96.108,573.787,570.461,0.0
55635.0,STARLINK-5495,PAYLOAD,2024-01-27 07:02:44,14.98329376,0.0002494,70.002,331.96,252.8145,107.2741,2.0313e-05,1.49e-06,0.0,0 STARLINK-5495,1 55635U 23021H   24027.29357334  .00000149  00000-0  20313-4 0  9990,2 55635  70.0020 331.9600 0002494 252.8145 107.2741 14.98329376 52790,6950.195,96.107,573.793,570.326,0.0
55635.0,STARLINK-5495,PAYLOAD,2024-01-27 21:27:57,14.98330963,0.0002487,70.0021,330.4452,252.0481,108.0407,2.443e-06,-6.4e-07,0.0,0 STARLINK-5495,1 55635U 23021H   24027.89441252 -.00000064  00000-0  24430-5 0  9991,2 55635  70.0021 330.4452 0002487 252.0481 108.0407 14.98330963 53183,6950.19,96.107,573.783,570.326,0.0
55635.0,STARLINK-5495,PAYLOAD,2024-01-28 05:28:37,14.98331685,0.0002831,70.0006,329.6016,266.7891,93.2944,-8.7199e-06,-1.97e-06,0.0,0 STARLINK-5495,1 55635U 23021H   24028.22821280 -.00000197  00000-0 -87199-5 0  9991,2 55635  70.0006 329.6016 0002831 266.7891  93.2944 14.98331685 53231,6950.188,96.107,574.02,570.085,0.0
55635.0,STARLINK-5495,PAYLOAD,2024-01-28 19:53:50,14.98328581,0.0002776,70.0006,328.0863,266.4285,93.6557,-9.6554e-06,-2.08e-06,0.0,0 STARLINK-5495,1 55635U 23021H   24028.82905496 -.00000208  00000-0 -96554-5 0  9997,2 55635  70.0006 328.0863 0002776 266.4285  93.6557 14.98328581 53028,6950.197,96.107,573.992,570.133,0.0
55635.0,STARLINK-5495,PAYLOAD,2024-01-28 21:29:58,14.98328797,0.000281,70.0006,327.9181,266.0099,94.0739,-1.7768e-06,-1.14e-06,0.0,0 STARLINK-5495,1 55635U 23021H   24028.89581450 -.00000114  00000-0 -17768-5 0  9990,2 55635  70.0006 327.9181 0002810 266.0099  94.0739 14.98328797 53337,6950.197,96.107,574.015,570.109,0.0
55635.0,STARLINK-5495,PAYLOAD,2024-01-29 05:30:38,14.98333469,0.0002961,70.0007,327.0767,270.6268,89.4552,5.0599e-05,5.11e-06,0.0,0 STARLINK-5495,1 55635U 23021H   24029.22961000  .00000511  00000-0  50599-4 0  9998,2 55635  70.0007 327.0767 0002961 270.6268  89.4552 14.98333469 53080,6950.182,96.107,574.105,569.989,0.0
55635.0,STARLINK-5495,PAYLOAD,2024-01-30 03:56:29,14.98350968,0.0002758,70.0003,324.7203,267.6556,92.4287,0.00021437,2.467e-05,0.0,0 STARLINK-5495,1 55635U 23021H   24030.16422711  .00002467  00000-0  21437-3 0  9994,2 55635  70.0003 324.7203 0002758 267.6556  92.4287 14.98350968 53223,6950.128,96.106,573.91,570.076,0.0
55635.0,STARLINK-5495,PAYLOAD,2024-01-30 05:32:37,14.98353593,0.000273,70.0005,324.5518,268.3833,91.7013,0.00024374,2.818e-05,0.0,0 STARLINK-5495,1 55635U 23021H   24030.23098391  .00002818  00000-0  24374-3 0  9998,2 55635  70.0005 324.5518 0002730 268.3833  91.7013 14.98353593 53538,6950.12,96.105,573.882,570.088,0.0
55635.0,STARLINK-5495,PAYLOAD,2024-01-30 19:57:51,14.98328645,0.0002809,69.9995,323.0378,267.9186,92.1651,-0.00010847,-1.387e-05,0.0,0 STARLINK-5495,1 55635U 23021H   24030.83184762 -.00001387  00000-0 -10847-3 0  9994,2 55635  69.9995 323.0378 0002809 267.9186  92.1651 14.98328645 53324,6950.197,96.107,574.014,570.11,0.0
55635.0,STARLINK-5495,PAYLOAD,2024-01-30 23:10:07,14.98326166,0.0003075,69.9993,322.7009,265.2913,94.7895,-0.00013732,-1.731e-05,0.0,0 STARLINK-5495,1 55635U 23021H   24030.96536930 -.00001731  00000-0 -13732-3 0  9995,2 55635  69.9993 322.7009 0003075 265.2913  94.7895 14.98326166 53643,6950.205,96.107,574.207,569.933,0.0
55635.0,STARLINK-5495,PAYLOAD,2024-01-31 05:34:40,14.98324919,0.0002924,69.9999,322.0283,264.8937,95.1888,-0.00013843,-1.744e-05,0.0,0 STARLINK-5495,1 55635U 23021H   24031.23241071 -.00001744  00000-0 -13843-3 0  9992,2 55635  69.9999 322.0283 0002924 264.8937  95.1888 14.98324919 53684,6950.209,96.107,574.106,570.041,0.0
55635.0,STARLINK-5495,PAYLOAD,2024-01-31 18:23:45,14.98333972,0.0002781,70.0002,320.6813,271.2733,88.8108,-0.00032564,-3.977e-05,0.0,0 STARLINK-5495,1 55635U 23021H   24031.76649342 -.00003977  00000-0 -32564-3 0  9994,2 55635  70.0002 320.6813 0002781 271.2733  88.8108 14.98333972 53764,6950.181,96.107,573.978,570.113,0.0
55635.0,STARLINK-5495,PAYLOAD,2024-02-01 04:00:32,14.9833748,0.0002728,70.0,319.6714,266.8485,93.2361,-0.00024804,-3.052e-05,0.0,0 STARLINK-5495,1 55635U 23021H   24032.16704758 -.00003052  00000-0 -24804-3 0  9994,2 55635  70.0000 319.6714 0002728 266.8485  93.2361 14.98337480 53528,6950.17,96.107,573.931,570.139,0.0
55635.0,STARLINK-5495,PAYLOAD,2024-02-01 18:25:45,14.9831965,0.0002631,70.0002,318.1566,257.2015,102.885,0.00011099,1.231e-05,0.0,0 STARLINK-5495,1 55635U 23021H   24032.76788903  .00001231  00000-0  11099-3 0  9991,2 55635  70.0002 318.1566 0002631 257.2015 102.8850 14.98319650 53614,6950.225,96.108,573.919,570.261,0.0
55635.0,STARLINK-5495,PAYLOAD,2024-02-02 04:02:33,14.98323964,0.0002516,70.0005,317.1466,256.2036,103.8843,0.00015285,1.731e-05,0.0,0 STARLINK-5495,1 55635U 23021H   24033.16844743  .00001731  00000-0  15285-3 0  9997,2 55635  70.0005 317.1466 0002516 256.2036 103.8843 14.98323964 53974,6950.212,96.107,573.825,570.328,0.0
55635.0,STARLINK-5495,PAYLOAD,2024-02-02 20:03:54,14.98325367,0.0002291,70.0009,315.4621,257.4976,102.5927,7.1258e-05,7.57e-06,0.0,0 STARLINK-5495,1 55635U 23021H   24033.83605182  .00000757  00000-0  71258-4 0  9993,2 55635  70.0009 315.4621 0002291 257.4976 102.5927 14.98325367 53774,6950.207,96.107,573.665,570.48,0.0
55635.0,STARLINK-5495,PAYLOAD,2024-02-02 21:40:03,14.98324522,0.0002362,70.0005,315.2949,261.2487,98.8405,6.318e-05,6.61e-06,0.0,0 STARLINK-5495,1 55635U 23021H   24033.90281278  .00000661  00000-0  63180-4 0  9996,2 55635  70.0005 315.2949 0002362 261.2487  98.8405 14.98324522 54085,6950.21,96.107,573.716,570.433,0.0
55635.0,STARLINK-5495,PAYLOAD,2024-02-03 04:04:35,14.98324443,0.0002497,70.0001,314.6214,266.3094,93.778,4.7829e-05,4.78e-06,0.0,0 STARLINK-5495,1 55635U 23021H   24034.16985421  .00000478  00000-0  47829-4 0  9994,2 55635  70.0001 314.6214 0002497 266.3094  93.7780 14.98324443 54125,6950.21,96.107,573.811,570.34,0.0
55635.0,STARLINK-5495,PAYLOAD,2024-02-03 20:05:55,14.98332368,0.0002588,69.9998,312.9382,266.9231,93.1632,-3.3071e-06,-1.32e-06,0.0,0 STARLINK-5495,1 55635U 23021H   24034.83745120 -.00000132  00000-0 -33071-5 0  9992,2 55635  69.9998 312.9382 0002588 266.9231  93.1632 14.98332368 53926,6950.186,96.107,573.849,570.252,0.0
55635.0,STARLINK-5495,PAYLOAD,2024-02-03 21:42:03,14.983329,0.0002578,69.9999,312.7697,266.8038,93.2826,2.4965e-06,-6.3e-07,0.0,0 STARLINK-5495,1 55635U 23021H   24034.90421052 -.00000063  00000-0  24965-5 0  9999,2 55635  69.9999 312.7697 0002578 266.8038  93.2826 14.98332900 54230,6950.184,96.107,573.841,570.257,0.0
55635.0,STARLINK-5495,PAYLOAD,2024-02-04 04:06:35,14.98336379,0.0002535,69.9999,312.0968,266.5213,93.5656,4.4982e-05,4.44e-06,0.0,0 STARLINK-5495,1 55635U 23021H   24035.17124642  .00000444  00000-0  44982-4 0  9996,2 55635  69.9999 312.0968 0002535 266.5213  93.5656 14.98336379 54271,6950.173,96.107,573.8,570.276,0.0
55635.0,STARLINK-5495,PAYLOAD,2024-02-04 20:07:57,14.98325068,0.0002454,70.0,310.4134,265.7197,94.3681,-1.0622e-05,-2.2e-06,0.0,0 STARLINK-5495,1 55635U 23021H   24035.83885491 -.00000220  00000-0 -10622-4 0  9993,2 55635  70.0000 310.4134 0002454 265.7197  94.3681 14.98325068 54074,6950.208,96.107,573.779,570.368,0.0
55635.0,STARLINK-5495,PAYLOAD,2024-02-04 21:44:05,14.98325461,0.0002447,70.0,310.2448,265.4362,94.6517,-5.8301e-06,-1.62e-06,0.0,0 STARLINK-5495,1 55635U 23021H   24035.90561462 -.00000162  00000-0 -58301-5 0  9992,2 55635  70.0000 310.2448 0002447 265.4362  94.6517 14.98325461 54385,6950.207,96.107,573.773,570.371,0.0
55635.0,STARLINK-5495,PAYLOAD,2024-02-05 04:08:37,14.98327074,0.0002477,70.0,309.5716,267.2532,92.8343,8.4378e-06,8e-08,0.0,0 STARLINK-5495,1 55635U 23021H   24036.17265384  .00000008  00000-0  84378-5 0  9996,2 55635  70.0000 309.5716 0002477 267.2532  92.8343 14.98327074 54420,6950.202,96.107,573.789,570.345,0.0
55635.0,STARLINK-5495,PAYLOAD,2024-02-05 20:09:57,14.98336109,0.0002502,69.9999,307.8882,269.3831,90.7041,1.3223e-05,6.5e-07,0.0,0 STARLINK-5495,1 55635U 23021H   24036.84024758  .00000065  00000-0  13223-4 0  9991,2 55635  69.9999 307.8882 0002502 269.3831  90.7041 14.98336109 54222,6950.174,96.107,573.778,570.3,0.0
